start=new Date('2022-07-20T00:00:00.000Z').valueOf();
sats=[{"MEAN_MOTION_DDOT":"0.0000000000000","LAUNCH_DATE":"2021-01-20","FILE":"3517796","ECCENTRICITY":"0.00016430","REV_AT_EPOCH":"8351","APOAPSIS":"548.344","INCLINATION":"53.0533","TLE_LINE1":"1 47393U 21005AW  22200.82250662  .00001431  00000-0  11494-3 0  9992","OBJECT_ID":"2021-005AW","SITE":"AFETR","ARG_OF_PERICENTER":"53.5561","TLE_LINE2":"2 47393  53.0533 212.4799 0001643  53.5561 306.5579 15.06402405 83519","MEAN_ANOMALY":"306.5579","CENTER_NAME":"EARTH","CLASSIFICATION_TYPE":"U","OBJECT_NAME":"STARLINK-2114","ELEMENT_SET_NO":"999","GP_ID":"208470581","MEAN_MOTION":"15.06402405","MEAN_MOTION_DOT":"0.00001431","RCS_SIZE":"LARGE","MEAN_ELEMENT_THEORY":"SGP4","EPOCH":"2022-07-19T19:44:24.571968","BSTAR":"0.00011494000000","RA_OF_ASC_NODE":"212.4799","PERIAPSIS":"546.068","COUNTRY_CODE":"US","NORAD_CAT_ID":"47393","SEMIMAJOR_AXIS":"6925.341","PERIOD":"95.592","REF_FRAME":"TEME","DECAY_DATE":null,"OBJECT_TYPE":"PAYLOAD","EPHEMERIS_TYPE":"0","TIME_SYSTEM":"UTC"},{"EPHEMERIS_TYPE":"0","TIME_SYSTEM":"UTC","OBJECT_TYPE":"PAYLOAD","REF_FRAME":"TEME","DECAY_DATE":null,"SEMIMAJOR_AXIS":"6925.350","PERIOD":"95.592","COUNTRY_CODE":"US","NORAD_CAT_ID":"47394","PERIAPSIS":"545.799","BSTAR":"0.00011131000000","RA_OF_ASC_NODE":"232.3035","MEAN_ELEMENT_THEORY":"SGP4","EPOCH":"2022-07-19T19:41:44.342304","RCS_SIZE":"LARGE","MEAN_MOTION_DOT":"0.00001377","GP_ID":"208470832","MEAN_MOTION":"15.06399623","ELEMENT_SET_NO":"999","OBJECT_NAME":"STARLINK-2115","TLE_LINE2":"2 47394  53.0550 232.3035 0002044  44.4520 315.6632 15.06399623 83241","CENTER_NAME":"EARTH","MEAN_ANOMALY":"315.6632","CLASSIFICATION_TYPE":"U","SITE":"AFETR","TLE_LINE1":"1 47394U 21005AX  22200.82065211  .00001377  00000-0  11131-3 0  9994","OBJECT_ID":"2021-005AX","ARG_OF_PERICENTER":"44.4520","REV_AT_EPOCH":"8324","INCLINATION":"53.0550","APOAPSIS":"548.630","ECCENTRICITY":"0.00020440","FILE":"3517796","LAUNCH_DATE":"2021-01-20","MEAN_MOTION_DDOT":"0.0000000000000"},{"REV_AT_EPOCH":"8330","INCLINATION":"53.0535","APOAPSIS":"548.447","OBJECT_ID":"2021-005AY","TLE_LINE1":"1 47395U 21005AY  22200.77501842  .00000640  00000-0  61894-4 0  9998","SITE":"AFETR","ARG_OF_PERICENTER":"49.3798","TLE_LINE2":"2 47395  53.0535 227.3545 0001779  49.3798 310.7345 15.06399498 83304","CENTER_NAME":"EARTH","MEAN_ANOMALY":"310.7345","CLASSIFICATION_TYPE":"U","OBJECT_NAME":"STARLINK-2117","ELEMENT_SET_NO":"999","GP_ID":"208471083","MEAN_MOTION":"15.06399498","MEAN_MOTION_DDOT":"0.0000000000000","LAUNCH_DATE":"2021-01-20","FILE":"3517796","ECCENTRICITY":"0.00017790","COUNTRY_CODE":"US","NORAD_CAT_ID":"47395","SEMIMAJOR_AXIS":"6925.350","PERIOD":"95.592","REF_FRAME":"TEME","DECAY_DATE":null,"OBJECT_TYPE":"PAYLOAD","EPHEMERIS_TYPE":"0","TIME_SYSTEM":"UTC","MEAN_MOTION_DOT":"0.00000640","RCS_SIZE":"LARGE","MEAN_ELEMENT_THEORY":"SGP4","EPOCH":"2022-07-19T18:36:01.591488","BSTAR":"0.00006189400000","RA_OF_ASC_NODE":"227.3545","PERIAPSIS":"545.983"},{"PERIOD":"95.592","SEMIMAJOR_AXIS":"6925.329","NORAD_CAT_ID":"47396","COUNTRY_CODE":"US","OBJECT_TYPE":"PAYLOAD","DECAY_DATE":null,"REF_FRAME":"TEME","TIME_SYSTEM":"UTC","EPHEMERIS_TYPE":"0","RCS_SIZE":"LARGE","MEAN_MOTION_DOT":"0.00001261","BSTAR":"0.00010354000000","RA_OF_ASC_NODE":"237.1576","EPOCH":"2022-07-19T19:38:22.152480","MEAN_ELEMENT_THEORY":"SGP4","PERIAPSIS":"546.189","ARG_OF_PERICENTER":"80.8198","OBJECT_ID":"2021-005AZ","TLE_LINE1":"1 47396U 21005AZ  22200.81831195  .00001261  00000-0  10354-3 0  9995","SITE":"AFETR","INCLINATION":"53.0539","APOAPSIS":"548.199","REV_AT_EPOCH":"8317","MEAN_ANOMALY":"279.2955","CENTER_NAME":"EARTH","CLASSIFICATION_TYPE":"U","TLE_LINE2":"2 47396  53.0539 237.1576 0001451  80.8198 279.2955 15.06406391 83175","MEAN_MOTION":"15.06406391","GP_ID":"208469832","ELEMENT_SET_NO":"999","OBJECT_NAME":"STARLINK-2118","MEAN_MOTION_DDOT":"0.0000000000000","FILE":"3517796","LAUNCH_DATE":"2021-01-20","ECCENTRICITY":"0.00014510"},{"LAUNCH_DATE":"2021-01-20","FILE":"3517796","MEAN_MOTION_DDOT":"0.0000000000000","ECCENTRICITY":"0.00014360","REV_AT_EPOCH":"8276","APOAPSIS":"548.228","INCLINATION":"53.0545","OBJECT_ID":"2021-005BA","TLE_LINE1":"1 47397U 21005BA  22200.88191236  .00001283  00000-0  10505-3 0  9990","SITE":"AFETR","ARG_OF_PERICENTER":"63.3236","OBJECT_NAME":"STARLINK-2119","ELEMENT_SET_NO":"999","GP_ID":"208470081","MEAN_MOTION":"15.06393326","TLE_LINE2":"2 47397  53.0545 266.8622 0001436  63.3236 296.7899 15.06393326 82764","MEAN_ANOMALY":"296.7899","CENTER_NAME":"EARTH","CLASSIFICATION_TYPE":"U","RCS_SIZE":"LARGE","MEAN_MOTION_DOT":"0.00001283","PERIAPSIS":"546.240","MEAN_ELEMENT_THEORY":"SGP4","EPOCH":"2022-07-19T21:09:57.227904","BSTAR":"0.00010505000000","RA_OF_ASC_NODE":"266.8622","COUNTRY_CODE":"US","NORAD_CAT_ID":"47397","SEMIMAJOR_AXIS":"6925.369","PERIOD":"95.593","EPHEMERIS_TYPE":"0","TIME_SYSTEM":"UTC","REF_FRAME":"TEME","DECAY_DATE":null,"OBJECT_TYPE":"PAYLOAD"},{"MEAN_MOTION_DOT":"0.00001933","RCS_SIZE":"LARGE","PERIAPSIS":"546.085","BSTAR":"0.00014865000000","RA_OF_ASC_NODE":"238.7862","EPOCH":"2022-07-19T10:58:14.212416","MEAN_ELEMENT_THEORY":"SGP4","PERIOD":"95.593","SEMIMAJOR_AXIS":"6925.378","NORAD_CAT_ID":"47398","COUNTRY_CODE":"US","TIME_SYSTEM":"UTC","EPHEMERIS_TYPE":"0","OBJECT_TYPE":"PAYLOAD","DECAY_DATE":null,"REF_FRAME":"TEME","FILE":"3517567","LAUNCH_DATE":"2021-01-20","MEAN_MOTION_DDOT":"0.0000000000000","ECCENTRICITY":"0.00016720","ARG_OF_PERICENTER":"70.7802","SITE":"AFETR","TLE_LINE1":"1 47398U 21005BB  22200.45710894  .00001933  00000-0  14865-3 0  9996","OBJECT_ID":"2021-005BB","APOAPSIS":"548.401","INCLINATION":"53.0529","REV_AT_EPOCH":"8372","GP_ID":"208418604","MEAN_MOTION":"15.06390492","ELEMENT_SET_NO":"999","OBJECT_NAME":"STARLINK-2120","CLASSIFICATION_TYPE":"U","MEAN_ANOMALY":"289.3368","CENTER_NAME":"EARTH","TLE_LINE2":"2 47398  53.0529 238.7862 0001672  70.7802 289.3368 15.06390492 83721"},{"TIME_SYSTEM":"UTC","EPHEMERIS_TYPE":"0","DECAY_DATE":null,"REF_FRAME":"TEME","OBJECT_TYPE":"PAYLOAD","NORAD_CAT_ID":"47399","COUNTRY_CODE":"US","PERIOD":"95.592","SEMIMAJOR_AXIS":"6925.352","PERIAPSIS":"546.200","EPOCH":"2022-07-19T19:47:43.037088","MEAN_ELEMENT_THEORY":"SGP4","BSTAR":"0.00002591800000","RA_OF_ASC_NODE":"247.3693","RCS_SIZE":"LARGE","MEAN_MOTION_DOT":"0.00000105","OBJECT_NAME":"STARLINK-2121","GP_ID":"208471584","ELEMENT_SET_NO":"999","MEAN_MOTION":"15.06398868","MEAN_ANOMALY":"294.5133","CLASSIFICATION_TYPE":"U","CENTER_NAME":"EARTH","TLE_LINE2":"2 47399  53.0538 247.3693 0001469  65.6010 294.5133 15.06398868 83024","INCLINATION":"53.0538","APOAPSIS":"548.234","REV_AT_EPOCH":"8302","ARG_OF_PERICENTER":"65.6010","TLE_LINE1":"1 47399U 21005BC  22200.82480367  .00000105  00000-0  25918-4 0  9999","OBJECT_ID":"2021-005BC","SITE":"AFETR","ECCENTRICITY":"0.00014690","LAUNCH_DATE":"2021-01-20","FILE":"3517796","MEAN_MOTION_DDOT":"0.0000000000000"},{"TLE_LINE2":"2 47400  53.0545 228.7946 0001651  64.8765 295.2395 15.06402188 83254","MEAN_ANOMALY":"295.2395","CENTER_NAME":"EARTH","CLASSIFICATION_TYPE":"U","GP_ID":"208444783","ELEMENT_SET_NO":"999","MEAN_MOTION":"15.06402188","OBJECT_NAME":"STARLINK-2122","TLE_LINE1":"1 47400U 21005BD  22200.45434304 -.00000848  00000-0 -38041-4 0  9998","OBJECT_ID":"2021-005BD","SITE":"AFETR","ARG_OF_PERICENTER":"64.8765","REV_AT_EPOCH":"8325","INCLINATION":"53.0545","APOAPSIS":"548.350","ECCENTRICITY":"0.00016510","MEAN_MOTION_DDOT":"0.0000000000000","FILE":"3517724","LAUNCH_DATE":"2021-01-20","OBJECT_TYPE":"PAYLOAD","REF_FRAME":"TEME","DECAY_DATE":null,"EPHEMERIS_TYPE":"0","TIME_SYSTEM":"UTC","SEMIMAJOR_AXIS":"6925.342","PERIOD":"95.592","COUNTRY_CODE":"US","NORAD_CAT_ID":"47400","BSTAR":"-0.00003804100000","RA_OF_ASC_NODE":"228.7946","MEAN_ELEMENT_THEORY":"SGP4","EPOCH":"2022-07-19T10:54:15.238656","PERIAPSIS":"546.063","RCS_SIZE":"LARGE","MEAN_MOTION_DOT":"-0.00000848"},{"NORAD_CAT_ID":"47401","COUNTRY_CODE":"US","PERIOD":"95.592","SEMIMAJOR_AXIS":"6925.337","TIME_SYSTEM":"UTC","EPHEMERIS_TYPE":"0","DECAY_DATE":null,"REF_FRAME":"TEME","OBJECT_TYPE":"PAYLOAD","RCS_SIZE":"LARGE","MEAN_MOTION_DOT":"0.00001153","PERIAPSIS":"545.950","EPOCH":"2022-07-19T19:17:09.193632","MEAN_ELEMENT_THEORY":"SGP4","RA_OF_ASC_NODE":"237.2343","BSTAR":"0.00009630600000","APOAPSIS":"548.455","INCLINATION":"53.0540","REV_AT_EPOCH":"8317","ARG_OF_PERICENTER":"60.5937","TLE_LINE1":"1 47401U 21005BE  22200.80357863  .00001153  00000-0  96306-4 0  9998","SITE":"AFETR","OBJECT_ID":"2021-005BE","OBJECT_NAME":"STARLINK-2123","MEAN_MOTION":"15.06403620","GP_ID":"208470582","ELEMENT_SET_NO":"999","MEAN_ANOMALY":"299.5232","CLASSIFICATION_TYPE":"U","CENTER_NAME":"EARTH","TLE_LINE2":"2 47401  53.0540 237.2343 0001809  60.5937 299.5232 15.06403620 83175","LAUNCH_DATE":"2021-01-20","FILE":"3517796","MEAN_MOTION_DDOT":"0.0000000000000","ECCENTRICITY":"0.00018090"},{"MEAN_ELEMENT_THEORY":"SGP4","EPOCH":"2022-07-19T19:43:40.956384","RA_OF_ASC_NODE":"237.1374","BSTAR":"0.00059306000000","PERIAPSIS":"546.149","MEAN_MOTION_DOT":"0.00008565","RCS_SIZE":"LARGE","REF_FRAME":"TEME","DECAY_DATE":null,"OBJECT_TYPE":"PAYLOAD","EPHEMERIS_TYPE":"0","TIME_SYSTEM":"UTC","COUNTRY_CODE":"US","NORAD_CAT_ID":"47402","SEMIMAJOR_AXIS":"6925.317","PERIOD":"95.591","ECCENTRICITY":"0.00014920","MEAN_MOTION_DDOT":"0.0000000000000","LAUNCH_DATE":"2021-01-20","FILE":"3517796","TLE_LINE2":"2 47402  53.0528 237.1374 0001492  50.7231 309.3891 15.06410265 83175","CENTER_NAME":"EARTH","MEAN_ANOMALY":"309.3891","CLASSIFICATION_TYPE":"U","OBJECT_NAME":"STARLINK-2124","GP_ID":"208470833","MEAN_MOTION":"15.06410265","ELEMENT_SET_NO":"999","REV_AT_EPOCH":"8317","INCLINATION":"53.0528","APOAPSIS":"548.215","OBJECT_ID":"2021-005BF","TLE_LINE1":"1 47402U 21005BF  22200.82200181  .00008565  00000-0  59306-3 0  9993","SITE":"AFETR","ARG_OF_PERICENTER":"50.7231"}];
